{
  "type": "FeatureCollection",
  "features": [
    {
      "type": "Feature",
      "properties": {
        "norad_id": 37959,
        "name": "COSMOS 2251 DEB",
        "group": "cosmos-2251-debris",
        "lat": -54.109969546387795,
        "lon": -82.40869092533288,
        "alt_km": 666.9422042860188,
        "timestamp": "2025-12-03T15:48:03.463785+00:00",
        "meta_object_name": "COSMOS 2251 DEB",
        "meta_object_id": "1993-036BPJ",
        "meta_epoch": "2025-12-03T06:37:43.732704",
        "meta_mean_motion": 14.58029421,
        "meta_eccentricity": 0.00584572,
        "meta_inclination": 74.0113,
        "meta_ra_of_asc_node": 74.9761,
        "meta_arg_of_pericenter": 219.613,
        "meta_mean_anomaly": 172.3716,
        "meta_ephemeris_type": 0,
        "meta_classification_type": "U",
        "meta_norad_cat_id": 37959,
        "meta_element_set_no": 999,
        "meta_rev_at_epoch": 79989,
        "meta_bstar": 0.0012227789,
        "meta_mean_motion_dot": 5.729e-05,
        "meta_mean_motion_ddot": 0,
        "tle_line1": "1 37959U 93036BPJ 25337.27620061  .00005729  00000+0  12228-2 0  9997",
        "tle_line2": "2 37959  74.0113  74.9761 0058457 219.6130 172.3716 14.58029421799891"
      },
      "geometry": {
        "type": "Point",
        "coordinates": [
          -82.40869092533288,
          -54.109969546387795
        ]
      }
    },
    {
      "type": "Feature",
      "properties": {
        "norad_id": 37960,
        "name": "COSMOS 2251 DEB",
        "group": "cosmos-2251-debris",
        "lat": -55.721961348774165,
        "lon": 178.01562306182444,
        "alt_km": 828.8810580153558,
        "timestamp": "2025-12-03T15:48:03.463794+00:00",
        "meta_object_name": "COSMOS 2251 DEB",
        "meta_object_id": "1993-036BPK",
        "meta_epoch": "2025-12-03T00:44:10.802976",
        "meta_mean_motion": 14.07807809,
        "meta_eccentricity": 0.02496601,
        "meta_inclination": 74.0591,
        "meta_ra_of_asc_node": 203.9073,
        "meta_arg_of_pericenter": 224.9718,
        "meta_mean_anomaly": 133.0963,
        "meta_ephemeris_type": 0,
        "meta_classification_type": "U",
        "meta_norad_cat_id": 37960,
        "meta_element_set_no": 999,
        "meta_rev_at_epoch": 77269,
        "meta_bstar": 0.0012185346,
        "meta_mean_motion_dot": 2.721e-05,
        "meta_mean_motion_ddot": 0,
        "tle_line1": "1 37960U 93036BPK 25337.03068059  .00002721  00000+0  12185-2 0  9997",
        "tle_line2": "2 37960  74.0591 203.9073 0249660 224.9718 133.0963 14.07807809772697"
      },
      "geometry": {
        "type": "Point",
        "coordinates": [
          178.01562306182444,
          -55.721961348774165
        ]
      }
    },
    {
      "type": "Feature",
      "properties": {
        "norad_id": 37961,
        "name": "COSMOS 2251 DEB",
        "group": "cosmos-2251-debris",
        "lat": -49.043801149016474,
        "lon": 135.12144830217747,
        "alt_km": 697.6470017849342,
        "timestamp": "2025-12-03T15:48:03.463803+00:00",
        "meta_object_name": "COSMOS 2251 DEB",
        "meta_object_id": "1993-036BPL",
        "meta_epoch": "2025-12-01T04:44:47.787648",
        "meta_mean_motion": 14.57792656,
        "meta_eccentricity": 0.0041244,
        "meta_inclination": 74.04,
        "meta_ra_of_asc_node": 159.049,
        "meta_arg_of_pericenter": 241.5465,
        "meta_mean_anomaly": 118.1542,
        "meta_ephemeris_type": 0,
        "meta_classification_type": "U",
        "meta_norad_cat_id": 37961,
        "meta_element_set_no": 999,
        "meta_rev_at_epoch": 79897,
        "meta_bstar": 0.001072,
        "meta_mean_motion_dot": 4.934e-05,
        "meta_mean_motion_ddot": 0,
        "tle_line1": "1 37961U 93036BPL 25335.19777532  .00004934  00000+0  10720-2 0  9997",
        "tle_line2": "2 37961  74.0400 159.0490 0041244 241.5465 118.1542 14.57792656798977"
      },
      "geometry": {
        "type": "Point",
        "coordinates": [
          135.12144830217747,
          -49.043801149016474
        ]
      }
    },
    {
      "type": "Feature",
      "properties": {
        "norad_id": 37966,
        "name": "COSMOS 2251 DEB",
        "group": "cosmos-2251-debris",
        "lat": 73.37579000359206,
        "lon": -36.31518757632108,
        "alt_km": 520.7652812312017,
        "timestamp": "2025-12-03T15:48:03.463813+00:00",
        "meta_object_name": "COSMOS 2251 DEB",
        "meta_object_id": "1993-036BPR",
        "meta_epoch": "2025-12-02T10:49:19.602048",
        "meta_mean_motion": 15.10966833,
        "meta_eccentricity": 0.00084464,
        "meta_inclination": 73.9763,
        "meta_ra_of_asc_node": 251.9188,
        "meta_arg_of_pericenter": 125.6609,
        "meta_mean_anomaly": 234.5371,
        "meta_ephemeris_type": 0,
        "meta_classification_type": "U",
        "meta_norad_cat_id": 37966,
        "meta_element_set_no": 999,
        "meta_rev_at_epoch": 85187,
        "meta_bstar": 0.0036739745,
        "meta_mean_motion_dot": 0.00061866,
        "meta_mean_motion_ddot": 0,
        "tle_line1": "1 37966U 93036BPR 25336.45092132  .00061866  00000+0  36740-2 0  9995",
        "tle_line2": "2 37966  73.9763 251.9188 0008446 125.6609 234.5371 15.10966833851879"
      },
      "geometry": {
        "type": "Point",
        "coordinates": [
          -36.31518757632108,
          73.37579000359206
        ]
      }
    },
    {
      "type": "Feature",
      "properties": {
        "norad_id": 37967,
        "name": "COSMOS 2251 DEB",
        "group": "cosmos-2251-debris",
        "lat": -66.26379687905006,
        "lon": 113.51687381787,
        "alt_km": 657.4185299443434,
        "timestamp": "2025-12-03T15:48:03.463822+00:00",
        "meta_object_name": "COSMOS 2251 DEB",
        "meta_object_id": "1993-036BPS",
        "meta_epoch": "2025-12-02T18:27:27.592704",
        "meta_mean_motion": 14.4035347,
        "meta_eccentricity": 0.01507388,
        "meta_inclination": 74.0137,
        "meta_ra_of_asc_node": 155.8513,
        "meta_arg_of_pericenter": 296.7858,
        "meta_mean_anomaly": 61.7944,
        "meta_ephemeris_type": 0,
        "meta_classification_type": "U",
        "meta_norad_cat_id": 37967,
        "meta_element_set_no": 999,
        "meta_rev_at_epoch": 64592,
        "meta_bstar": 0.0017095367,
        "meta_mean_motion_dot": 6.178e-05,
        "meta_mean_motion_ddot": 0,
        "tle_line1": "1 37967U 93036BPS 25336.76906936  .00006178  00000+0  17095-2 0  9993",
        "tle_line2": "2 37967  74.0137 155.8513 0150738 296.7858  61.7944 14.40353470645921"
      },
      "geometry": {
        "type": "Point",
        "coordinates": [
          113.51687381787,
          -66.26379687905006
        ]
      }
    },
    {
      "type": "Feature",
      "properties": {
        "norad_id": 37968,
        "name": "COSMOS 2251 DEB",
        "group": "cosmos-2251-debris",
        "lat": -71.48504971788815,
        "lon": -129.29352028062866,
        "alt_km": 607.5854694322634,
        "timestamp": "2025-12-03T15:48:03.463831+00:00",
        "meta_object_name": "COSMOS 2251 DEB",
        "meta_object_id": "1993-036BPT",
        "meta_epoch": "2025-12-03T03:21:20.781504",
        "meta_mean_motion": 15.00197638,
        "meta_eccentricity": 0.00808241,
        "meta_inclination": 74.0001,
        "meta_ra_of_asc_node": 290.7252,
        "meta_arg_of_pericenter": 48.8285,
        "meta_mean_anomaly": 311.9836,
        "meta_ephemeris_type": 0,
        "meta_classification_type": "U",
        "meta_norad_cat_id": 37968,
        "meta_element_set_no": 999,
        "meta_rev_at_epoch": 60075,
        "meta_bstar": 0.0013441412,
        "meta_mean_motion_dot": 0.00018013,
        "meta_mean_motion_ddot": 0,
        "tle_line1": "1 37968U 93036BPT 25337.13982386  .00018013  00000+0  13441-2 0  9991",
        "tle_line2": "2 37968  74.0001 290.7252 0080824  48.8285 311.9836 15.00197638600750"
      },
      "geometry": {
        "type": "Point",
        "coordinates": [
          -129.29352028062866,
          -71.48504971788815
        ]
      }
    },
    {
      "type": "Feature",
      "properties": {
        "norad_id": 37971,
        "name": "COSMOS 2251 DEB",
        "group": "cosmos-2251-debris",
        "lat": 73.8167050139051,
        "lon": 157.24413450937502,
        "alt_km": 737.3073178963587,
        "timestamp": "2025-12-03T15:48:03.463840+00:00",
        "meta_object_name": "COSMOS 2251 DEB",
        "meta_object_id": "1993-036BPW",
        "meta_epoch": "2025-12-02T12:50:52.874880",
        "meta_mean_motion": 14.48350603,
        "meta_eccentricity": 0.00686219,
        "meta_inclination": 73.993,
        "meta_ra_of_asc_node": 60.9089,
        "meta_arg_of_pericenter": 201.4648,
        "meta_mean_anomaly": 158.3632,
        "meta_ephemeris_type": 0,
        "meta_classification_type": "U",
        "meta_norad_cat_id": 37971,
        "meta_element_set_no": 999,
        "meta_rev_at_epoch": 60530,
        "meta_bstar": 0.0025913383,
        "meta_mean_motion_dot": 9.973e-05,
        "meta_mean_motion_ddot": 0,
        "tle_line1": "1 37971U 93036BPW 25336.53533420  .00009973  00000+0  25913-2 0  9991",
        "tle_line2": "2 37971  73.9930  60.9089 0068621 201.4648 158.3632 14.48350603605306"
      },
      "geometry": {
        "type": "Point",
        "coordinates": [
          157.24413450937502,
          73.8167050139051
        ]
      }
    }
  ]
}